NORAD_CAT_ID,OBJECT_NAME,OBJECT_TYPE,EPOCH,MEAN_MOTION,ECCENTRICITY,INCLINATION,RA_OF_ASC_NODE,ARG_OF_PERICENTER,MEAN_ANOMALY,BSTAR,MEAN_MOTION_DOT,MEAN_MOTION_DDOT,TLE_LINE0,TLE_LINE1,TLE_LINE2,SEMIMAJOR_AXIS,PERIOD,APOGEE,PERIGEE,DECAYED
56814.0,STARLINK-6059,PAYLOAD,2023-08-20 23:39:01,15.69928463,0.0002992,69.999,183.546,272.0936,87.9917,-1.2321e-06,-3.61e-06,0.0,0 STARLINK-6059,1 56814U 23078AZ  23232.98543979 -.00000361  00000-0 -12321-5 0  9996,2 56814  69.9990 183.5460 0002992 272.0936  87.9917 15.69928463 13138,6737.239,91.724,361.119,357.088,0.0
56814.0,STARLINK-6059,PAYLOAD,2023-08-22 00:07:04,15.69927427,0.0002878,70.0006,180.6822,257.1206,102.9668,1.5172e-05,1.612e-05,0.0,0 STARLINK-6059,1 56814U 23078AZ  23234.00490777  .00001612  00000-0  15172-4 0  9992,2 56814  70.0006 180.6822 0002878 257.1206 102.9668 15.69927427 13293,6737.242,91.724,361.046,357.168,0.0
56814.0,STARLINK-6059,PAYLOAD,2023-08-23 06:42:06,15.69925453,0.0003421,69.9994,177.098,267.2046,92.8758,1.5908e-05,1.701e-05,0.0,0 STARLINK-6059,1 56814U 23078AZ  23235.27924295  .00001701  00000-0  15908-4 0  9995,2 56814  69.9994 177.0980 0003421 267.2046  92.8758 15.69925453 13496,6737.247,91.724,361.417,356.807,0.0
56814.0,STARLINK-6059,PAYLOAD,2023-08-24 19:24:09,15.6992722,0.000374,69.9988,172.7977,267.7377,92.339,9.1949e-06,8.93e-06,0.0,0 STARLINK-6059,1 56814U 23078AZ  23236.80844219  .00000893  00000-0  91949-5 0  9993,2 56814  69.9988 172.7977 0003740 267.7377  92.3390 15.69927220 13731,6737.242,91.724,361.627,356.587,0.0
56814.0,STARLINK-6059,PAYLOAD,2023-08-25 04:34:40,15.69921795,0.0003739,69.9995,171.7253,261.0545,99.0227,1.2185e-06,-6.6e-07,0.0,0 STARLINK-6059,1 56814U 23078AZ  23237.19074482 -.00000066  00000-0  12185-5 0  9991,2 56814  69.9995 171.7253 0003739 261.0545  99.0227 15.69921795 13539,6737.258,91.724,361.642,356.604,0.0
56814.0,STARLINK-6059,PAYLOAD,2023-08-26 05:02:42,15.69921094,0.0003171,69.999,168.8584,258.3813,101.7027,2.409e-05,2.684e-05,0.0,0 STARLINK-6059,1 56814U 23078AZ  23238.21021459  .00002684  00000-0  24090-4 0  9995,2 56814  69.9990 168.8584 0003171 258.3813 101.7027 15.69921094 13952,6737.26,91.724,361.261,356.988,0.0
56814.0,STARLINK-6059,PAYLOAD,2023-08-26 20:20:13,15.69926383,0.0004021,69.9993,167.0679,267.2541,92.8194,9.8486e-06,9.71e-06,0.0,0 STARLINK-6059,1 56814U 23078AZ  23238.84737803  .00000971  00000-0  98486-5 0  9999,2 56814  69.9993 167.0679 0004021 267.2541  92.8194 15.69926383 13796,6737.245,91.724,361.819,356.401,0.0
56814.0,STARLINK-6059,PAYLOAD,2023-08-27 07:02:29,15.69923744,0.0003361,69.9979,165.8099,263.6406,96.4407,2.2881e-05,2.539e-05,0.0,0 STARLINK-6059,1 56814U 23078AZ  23239.29339755  .00002539  00000-0  22881-4 0  9990,2 56814  69.9979 165.8099 0003361 263.6406  96.4407 15.69923744 14121,6737.252,91.724,361.382,356.853,0.0
56814.0,STARLINK-6059,PAYLOAD,2023-08-27 20:48:15,15.69926716,0.0002907,69.9985,164.2006,263.9158,96.1706,2.1292e-05,2.348e-05,0.0,0 STARLINK-6059,1 56814U 23078AZ  23239.86684757  .00002348  00000-0  21292-4 0  9991,2 56814  69.9985 164.2006 0002907 263.9158  96.1706 15.69926716 13952,6737.244,91.724,361.067,357.15,0.0
56814.0,STARLINK-6059,PAYLOAD,2023-08-28 07:30:31,15.69922419,0.000322,69.9979,162.9449,268.2363,91.8464,9.6383e-06,9.46e-06,0.0,0 STARLINK-6059,1 56814U 23078AZ  23240.31286902  .00000946  00000-0  96383-5 0  9999,2 56814  69.9979 162.9449 0003220 268.2363  91.8464 15.69922419 14282,6737.256,91.724,361.29,356.952,0.0
56814.0,STARLINK-6059,PAYLOAD,2023-08-28 21:16:17,15.69928078,0.000337,69.9996,161.3325,272.2927,87.7883,1.1217e-05,1.136e-05,0.0,0 STARLINK-6059,1 56814U 23078AZ  23240.88631402  .00001136  00000-0  11217-4 0  9994,2 56814  69.9996 161.3325 0003370 272.2927  87.7883 15.69928078 14112,6737.24,91.724,361.375,356.834,0.0
56814.0,STARLINK-6059,PAYLOAD,2023-08-29 20:12:34,15.69929194,0.000358,69.998,158.6474,270.6235,89.455,5.787e-06,4.83e-06,0.0,0 STARLINK-6059,1 56814U 23078AZ  23241.84206659  .00000483  00000-0  57870-5 0  9993,2 56814  69.9980 158.6474 0003580 270.6235  89.4550 15.69929194 14262,6737.237,91.724,361.514,356.69,0.0
56814.0,STARLINK-6059,PAYLOAD,2023-08-30 03:51:20,15.69926911,0.0003366,69.9986,157.7512,271.7634,88.3176,7.6067e-06,7.02e-06,0.0,0 STARLINK-6059,1 56814U 23078AZ  23242.16064986  .00000702  00000-0  76067-5 0  9997,2 56814  69.9986 157.7512 0003366 271.7634  88.3176 15.69926911 14310,6737.243,91.724,361.376,356.84,0.0
56814.0,STARLINK-6059,PAYLOAD,2023-08-30 22:12:21,15.69924851,0.0003266,69.9991,155.6006,271.1156,88.9666,9.9408e-06,9.83e-06,0.0,0 STARLINK-6059,1 56814U 23078AZ  23242.92525246  .00000983  00000-0  99408-5 0  9997,2 56814  69.9991 155.6006 0003266 271.1156  88.9666 15.69924851 14695,6737.249,91.724,361.314,356.914,0.0
56814.0,STARLINK-6059,PAYLOAD,2023-08-31 05:51:07,15.69918695,0.0003129,69.9992,154.7047,271.0527,89.0311,4.1975e-05,4.836e-05,0.0,0 STARLINK-6059,1 56814U 23078AZ  23243.24384015  .00004836  00000-0  41975-4 0  9996,2 56814  69.9992 154.7047 0003129 271.0527  89.0311 15.69918695 14485,6737.267,91.724,361.24,357.024,0.0
56814.0,STARLINK-6059,PAYLOAD,2023-09-01 10:54:24,15.69948678,0.0003291,69.9979,151.3005,276.1867,83.8954,-3.4087e-05,-4.313e-05,0.0,0 STARLINK-6059,1 56814U 23078AZ  23244.45444463 -.00004313  00000-0 -34087-4 0  9992,2 56814  69.9979 151.3005 0003291 276.1867  83.8954 15.69948678 14939,6737.181,91.723,361.263,356.829,0.0
56814.0,STARLINK-6059,PAYLOAD,2023-09-02 00:40:10,15.69937596,0.0002336,70.002,149.6901,274.3748,85.7181,3.6412e-05,4.17e-05,0.0,0 STARLINK-6059,1 56814U 23078AZ  23245.02790032  .00004170  00000-0  36412-4 0  9995,2 56814  70.0020 149.6901 0002336 274.3748  85.7181 15.69937596 15022,6737.213,91.723,360.651,357.504,0.0
56814.0,STARLINK-6059,PAYLOAD,2023-09-02 05:15:26,15.69911427,0.0003351,69.9987,149.1525,269.9821,90.0991,-2.2909e-05,-2.965e-05,0.0,0 STARLINK-6059,1 56814U 23078AZ  23245.21905954 -.00002965  00000-0 -22909-4 0  9995,2 56814  69.9987 149.1525 0003351 269.9821  90.0991 15.69911427 15054,6737.287,91.725,361.41,356.895,0.0
56814.0,STARLINK-6059,PAYLOAD,2023-09-02 11:22:27,15.69914212,0.0003646,69.9956,148.4358,267.5882,92.4896,-6.7618e-07,-2.94e-06,0.0,0 STARLINK-6059,1 56814U 23078AZ  23245.47392974 -.00000294  00000-0 -67618-6 0  9996,2 56814  69.9956 148.4358 0003646 267.5882  92.4896 15.69914212 14834,6737.279,91.725,361.601,356.688,0.0
56814.0,STARLINK-6059,PAYLOAD,2023-09-02 20:32:57,15.69913219,0.0005187,69.9914,147.3609,264.4984,95.562,2.2273e-05,2.465e-05,0.0,0 STARLINK-6059,1 56814U 23078AZ  23245.85621893  .00002465  00000-0  22273-4 0  9999,2 56814  69.9914 147.3609 0005187 264.4984  95.5620 15.69913219 14897,6737.282,91.725,362.642,355.653,0.0
56814.0,STARLINK-6059,PAYLOAD,2023-09-03 02:39:58,15.69916432,0.0003019,70.0002,146.6445,248.8428,111.2445,-2.5054e-05,-3.223e-05,0.0,0 STARLINK-6059,1 56814U 23078AZ  23246.11109124 -.00003223  00000-0 -25054-4 0  9992,2 56814  70.0002 146.6445 0003019 248.8428 111.2445 15.69916432 15194,6737.273,91.725,361.172,357.104,0.0
56814.0,STARLINK-6059,PAYLOAD,2023-09-03 04:11:43,15.69909576,0.0003241,69.9985,146.4652,263.8297,96.2529,-2.7103e-05,-3.468e-05,0.0,0 STARLINK-6059,1 56814U 23078AZ  23246.17481177 -.00003468  00000-0 -27103-4 0  9997,2 56814  69.9985 146.4652 0003241 263.8297  96.2529 15.69909576 15205,6737.293,91.725,361.341,356.974,0.0
56814.0,STARLINK-6059,PAYLOAD,2023-09-03 22:32:46,15.69888531,0.0003103,69.9988,144.3146,269.1447,90.9394,-4.9589e-05,-6.162e-05,0.0,0 STARLINK-6059,1 56814U 23078AZ  23246.93942533 -.00006162  00000-0 -49589-4 0  9995,2 56814  69.9988 144.3146 0003103 269.1447  90.9394 15.69888531 15327,6737.353,91.726,361.309,357.127,0.0
56814.0,STARLINK-6059,PAYLOAD,2023-09-04 06:11:30,15.69929888,0.0003753,69.9983,143.4196,263.5521,96.5247,2.0174e-05,2.214e-05,0.0,0 STARLINK-6059,1 56814U 23078AZ  23247.25798941  .00002214  00000-0  20174-4 0  9994,2 56814  69.9983 143.4196 0003753 263.5521  96.5247 15.69929888 15374,6737.235,91.724,361.628,356.571,0.0
56814.0,STARLINK-6059,PAYLOAD,2023-09-04 10:46:47,15.69906245,0.0003336,69.9986,142.8825,276.7148,83.3668,6.4571e-07,-1.35e-06,0.0,0 STARLINK-6059,1 56814U 23078AZ  23247.44915512 -.00000135  00000-0  64571-6 0  9992,2 56814  69.9986 142.8825 0003336 276.7148  83.3668 15.69906245 15145,6737.302,91.725,361.415,356.92,0.0
56814.0,STARLINK-6059,PAYLOAD,2023-09-04 18:25:49,15.69546009,0.0006487,69.9985,141.9872,280.2832,79.7631,-0.00067912,-0.00079924,0.0,0 STARLINK-6059,1 56814U 23078AZ  23247.76793883 -.00079924  00000-0 -67912-3 0  9994,2 56814  69.9985 141.9872 0006487 280.2832  79.7631 15.69546009 15457,6738.333,91.746,364.569,355.827,0.0
56814.0,STARLINK-6059,PAYLOAD,2023-09-05 04:00:00,15.68371114,0.0003445,69.9982,140.8663,271.1736,180.8105,-0.0086447,-0.00878561,0.0,0 STARLINK-6059,1 56814U 23078AZ  23248.16667824 -.00878561  00000-0 -86447-2 0  9991,2 56814  69.9982 140.8663 0003445 271.1736 180.8105 15.68371114 15512,6741.698,91.815,365.885,361.24,0.0
56814.0,STARLINK-6059,PAYLOAD,2023-09-05 14:00:01,15.67530006,0.0003558,69.9982,139.6986,261.5438,21.6873,-0.0085227,-0.00840727,0.0,0 STARLINK-6059,1 56814U 23078AZ  23248.58334491 -.00840727  00000-0 -85227-2 0  9996,2 56814  69.9982 139.6986 0003558 261.5438  21.6873 15.67530006  6030,6744.109,91.864,368.374,363.575,0.0
56814.0,STARLINK-6059,PAYLOAD,2023-09-05 20:00:01,15.67105805,0.0003891,69.9984,138.9985,262.1047,351.257,-0.0097587,-0.00950133,0.0,0 STARLINK-6059,1 56814U 23078AZ  23248.83334491 -.00950133  00000-0 -97587-2 0  9999,2 56814  69.9984 138.9985 0003891 262.1047 351.2570 15.67105805 15622,6745.326,91.889,369.816,364.567,0.0
56814.0,STARLINK-6059,PAYLOAD,2023-09-06 14:00:01,15.65574348,0.0003451,69.9977,136.9011,261.7795,259.439,-0.0092407,-0.0084193,0.0,0 STARLINK-6059,1 56814U 23078AZ  23249.58334491 -.00841930  00000-0 -92407-2 0  9992,2 56814  69.9977 136.9011 0003451 261.7795 259.4390 15.65574348  5908,6749.724,91.979,373.919,369.26,0.0
